{
  "type": "FeatureCollection",
  "features": [
    {
      "type": "Feature",
      "properties": {
        "norad_id": 27954,
        "name": "GALAXY 13 (HORIZONS-1)",
        "group": "intelsat",
        "lat": -0.8721641907324178,
        "lon": 14.090987099685895,
        "alt_km": 35791.8817798424,
        "timestamp": "2025-12-09T05:43:20.395378+00:00",
        "meta_object_name": "GALAXY 13 (HORIZONS-1)",
        "meta_object_id": "2003-044A",
        "meta_epoch": "2025-12-08T16:18:51.670080",
        "meta_mean_motion": 1.00269733,
        "meta_eccentricity": 0.000203,
        "meta_inclination": 0.9249,
        "meta_ra_of_asc_node": 86.5233,
        "meta_arg_of_pericenter": 160.3952,
        "meta_mean_anomaly": 285.4875,
        "meta_ephemeris_type": 0,
        "meta_classification_type": "U",
        "meta_norad_cat_id": 27954,
        "meta_element_set_no": 999,
        "meta_rev_at_epoch": 4466,
        "meta_bstar": 0,
        "meta_mean_motion_dot": 1.35e-06,
        "meta_mean_motion_ddot": 0,
        "tle_line1": "1 27954U 03044A   25342.67976470  .00000135  00000+0  00000+0 0  9997",
        "tle_line2": "2 27954   0.9249  86.5233 0002030 160.3952 285.4875  1.00269733 44661"
      },
      "geometry": {
        "type": "Point",
        "coordinates": [
          14.090987099685895,
          -0.8721641907324178
        ]
      }
    },
    {
      "type": "Feature",
      "properties": {
        "norad_id": 28358,
        "name": "INTELSAT 10-02",
        "group": "intelsat",
        "lat": 0.02640941762683354,
        "lon": 163.0764425252275,
        "alt_km": 35789.93624545779,
        "timestamp": "2025-12-09T05:43:20.395391+00:00",
        "meta_object_name": "INTELSAT 10-02",
        "meta_object_id": "2004-022A",
        "meta_epoch": "2025-12-08T18:44:16.342944",
        "meta_mean_motion": 1.00271324,
        "meta_eccentricity": 0.0001333,
        "meta_inclination": 0.0308,
        "meta_ra_of_asc_node": 71.0124,
        "meta_arg_of_pericenter": 224.0151,
        "meta_mean_anomaly": 62.8466,
        "meta_ephemeris_type": 0,
        "meta_classification_type": "U",
        "meta_norad_cat_id": 28358,
        "meta_element_set_no": 999,
        "meta_rev_at_epoch": 7864,
        "meta_bstar": 0,
        "meta_mean_motion_dot": -9e-08,
        "meta_mean_motion_ddot": 0,
        "tle_line1": "1 28358U 04022A   25342.78074471 -.00000009  00000+0  00000+0 0  9996",
        "tle_line2": "2 28358   0.0308  71.0124 0001333 224.0151  62.8466  1.00271324 78646"
      },
      "geometry": {
        "type": "Point",
        "coordinates": [
          163.0764425252275,
          0.02640941762683354
        ]
      }
    },
    {
      "type": "Feature",
      "properties": {
        "norad_id": 28626,
        "name": "XM-3 (RHYTHM)",
        "group": "intelsat",
        "lat": -0.10753138803116778,
        "lon": -65.00349208879837,
        "alt_km": 36156.0068990903,
        "timestamp": "2025-12-09T05:43:20.395403+00:00",
        "meta_object_name": "XM-3 (RHYTHM)",
        "meta_object_id": "2005-008A",
        "meta_epoch": "2025-12-08T19:22:20.198208",
        "meta_mean_motion": 0.98953939,
        "meta_eccentricity": 0.0001329,
        "meta_inclination": 0.1645,
        "meta_ra_of_asc_node": 81.1557,
        "meta_arg_of_pericenter": 262.9494,
        "meta_mean_anomaly": 157.2768,
        "meta_ephemeris_type": 0,
        "meta_classification_type": "U",
        "meta_norad_cat_id": 28626,
        "meta_element_set_no": 999,
        "meta_rev_at_epoch": 4071,
        "meta_bstar": 0,
        "meta_mean_motion_dot": -2.51e-06,
        "meta_mean_motion_ddot": 0,
        "tle_line1": "1 28626U 05008A   25342.80717822 -.00000251  00000+0  00000+0 0  9995",
        "tle_line2": "2 28626   0.1645  81.1557 0001329 262.9494 157.2768  0.98953939 40713"
      },
      "geometry": {
        "type": "Point",
        "coordinates": [
          -65.00349208879837,
          -0.10753138803116778
        ]
      }
    },
    {
      "type": "Feature",
      "properties": {
        "norad_id": 28659,
        "name": "DIRECTV 8",
        "group": "intelsat",
        "lat": 0.028248194580814987,
        "lon": 45.04037943880417,
        "alt_km": 35796.908357803186,
        "timestamp": "2025-12-09T05:43:20.395416+00:00",
        "meta_object_name": "DIRECTV 8",
        "meta_object_id": "2005-019A",
        "meta_epoch": "2025-12-08T16:27:43.322112",
        "meta_mean_motion": 1.00271726,
        "meta_eccentricity": 0.00032,
        "meta_inclination": 0.017,
        "meta_ra_of_asc_node": 2.9387,
        "meta_arg_of_pericenter": 258.9948,
        "meta_mean_anomaly": 303.6393,
        "meta_ephemeris_type": 0,
        "meta_classification_type": "U",
        "meta_norad_cat_id": 28659,
        "meta_element_set_no": 999,
        "meta_rev_at_epoch": 7516,
        "meta_bstar": 0,
        "meta_mean_motion_dot": 3e-08,
        "meta_mean_motion_ddot": 0,
        "tle_line1": "1 28659U 05019A   25342.68591808  .00000003  00000+0  00000+0 0  9997",
        "tle_line2": "2 28659   0.0170   2.9387 0003200 258.9948 303.6393  1.00271726 75161"
      },
      "geometry": {
        "type": "Point",
        "coordinates": [
          45.04037943880417,
          0.028248194580814987
        ]
      }
    },
    {
      "type": "Feature",
      "properties": {
        "norad_id": 28702,
        "name": "GALAXY 28 (G-28)",
        "group": "intelsat",
        "lat": -0.2692110118533598,
        "lon": 75.3910713605091,
        "alt_km": 35797.56068334033,
        "timestamp": "2025-12-09T05:43:20.395442+00:00",
        "meta_object_name": "GALAXY 28 (G-28)",
        "meta_object_id": "2005-022A",
        "meta_epoch": "2025-12-08T14:53:37.334400",
        "meta_mean_motion": 1.00271292,
        "meta_eccentricity": 0.0002667,
        "meta_inclination": 2.8081,
        "meta_ra_of_asc_node": 81.3297,
        "meta_arg_of_pericenter": 178.1657,
        "meta_mean_anomaly": 312.8506,
        "meta_ephemeris_type": 0,
        "meta_classification_type": "U",
        "meta_norad_cat_id": 28702,
        "meta_element_set_no": 999,
        "meta_rev_at_epoch": 5006,
        "meta_bstar": 0,
        "meta_mean_motion_dot": -1.86e-06,
        "meta_mean_motion_ddot": 0,
        "tle_line1": "1 28702U 05022A   25342.62057100 -.00000186  00000+0  00000+0 0  9999",
        "tle_line2": "2 28702   2.8081  81.3297 0002667 178.1657 312.8506  1.00271292 50066"
      },
      "geometry": {
        "type": "Point",
        "coordinates": [
          75.3910713605091,
          -0.2692110118533598
        ]
      }
    },
    {
      "type": "Feature",
      "properties": {
        "norad_id": 29236,
        "name": "GALAXY 16 (G-16)",
        "group": "intelsat",
        "lat": 0.002153279998574927,
        "lon": 65.05645438726329,
        "alt_km": 35798.068004873276,
        "timestamp": "2025-12-09T05:43:20.395469+00:00",
        "meta_object_name": "GALAXY 16 (G-16)",
        "meta_object_id": "2006-023A",
        "meta_epoch": "2025-12-08T14:50:30.133248",
        "meta_mean_motion": 1.00272594,
        "meta_eccentricity": 0.0002898,
        "meta_inclination": 0.0102,
        "meta_ra_of_asc_node": 98.5985,
        "meta_arg_of_pericenter": 152.684,
        "meta_mean_anomaly": 309.9515,
        "meta_ephemeris_type": 0,
        "meta_classification_type": "U",
        "meta_norad_cat_id": 29236,
        "meta_element_set_no": 999,
        "meta_rev_at_epoch": 7106,
        "meta_bstar": 0,
        "meta_mean_motion_dot": -1.25e-06,
        "meta_mean_motion_ddot": 0,
        "tle_line1": "1 29236U 06023A   25342.61840432 -.00000125  00000+0  00000+0 0  9994",
        "tle_line2": "2 29236   0.0102  98.5985 0002898 152.6840 309.9515  1.00272594 71060"
      },
      "geometry": {
        "type": "Point",
        "coordinates": [
          65.05645438726329,
          0.002153279998574927
        ]
      }
    },
    {
      "type": "Feature",
      "properties": {
        "norad_id": 29494,
        "name": "DIRECTV 9S",
        "group": "intelsat",
        "lat": -0.6515226266543757,
        "lon": 62.87222182238427,
        "alt_km": 35799.40046141619,
        "timestamp": "2025-12-09T05:43:20.395494+00:00",
        "meta_object_name": "DIRECTV 9S",
        "meta_object_id": "2006-043A",
        "meta_epoch": "2025-12-08T16:32:50.333280",
        "meta_mean_motion": 1.00270645,
        "meta_eccentricity": 0.0003192,
        "meta_inclination": 1.9297,
        "meta_ra_of_asc_node": 83.2481,
        "meta_arg_of_pericenter": 176.9714,
        "meta_mean_anomaly": 324.469,
        "meta_ephemeris_type": 0,
        "meta_classification_type": "U",
        "meta_norad_cat_id": 29494,
        "meta_element_set_no": 999,
        "meta_rev_at_epoch": 4947,
        "meta_bstar": 0,
        "meta_mean_motion_dot": -1.11e-06,
        "meta_mean_motion_ddot": 0,
        "tle_line1": "1 29494U 06043A   25342.68947145 -.00000111  00000+0  00000+0 0  9993",
        "tle_line2": "2 29494   1.9297  83.2481 0003192 176.9714 324.4690  1.00270645 49471"
      },
      "geometry": {
        "type": "Point",
        "coordinates": [
          62.87222182238427,
          -0.6515226266543757
        ]
      }
    }
  ]
}